    CK13F010  2012 12  2.6241  1.860114  1.002751   92.0073   30.1074   79.6450  20150104  13.0  4.0  C/2013 F1 (Boattini)                                     MPC 84626
    CK13F020  2013 04 19.6876  6.220796  0.998162  123.0754  344.2681   61.7622  20150104   7.0  4.0  C/2013 F2 (Catalina)                                     MPC 88695
    CK13F030  2013 05 25.1266  2.252452  0.996390   18.7360  266.1020   85.4470  20150104  12.0  4.0  C/2013 F3 (McNaught)                                     MPC 84933
    PK13G010  2013 12 10.8112  3.352649  0.512486   51.2230  221.4680    5.4687  20150104  11.0  4.0  P/2013 G1 (Kowalski)                                     MPEC 2014-Y44
    CK13G020  2012 12  6.4034  2.152267  1.000263  293.8728  274.1043   95.9938  20150104  11.5  4.0  C/2013 G2 (McNaught)                                     MPC 84933
    CK13G030  2014 11 15.1984  3.852173  1.000524   76.4994  208.1247   64.6691  20150104   9.0  4.0  C/2013 G3 (PANSTARRS)                                    MPEC 2014-Y44
    PK13G040  2013 02 10.2209  2.612839  0.410725  214.5284  339.7420    5.9251  20150104  15.0  4.0  P/2013 G4 (PANSTARRS)                                    MPC 84025
    CK13G050  2013 09  1.3459  0.929235  1.000124  165.7022  144.2349   40.6022  20150104  14.0  4.0  C/2013 G5 (Catalina)                                     MPC 84318
    CK13G060  2013 07 25.1659  2.049040  0.994310  215.7070   44.5770  124.0804  20150104  13.5  4.0  C/2013 G6 (Lemmon)                                       MPC 87478
    CK13G070  2014 03 18.7233  4.677669  0.997106  218.2691   48.3931  105.0993  20150104   7.5  4.0  C/2013 G7 (McNaught)                                     MPEC 2014-Y44
    CK13G080  2013 11 14.7178  5.140715  0.997567   80.1556  241.0042   27.6169  20150104   8.5  4.0  C/2013 G8 (PANSTARRS)                                    MPC 90767
    CK13G090  2015 01 14.7457  5.337511  1.000914  204.9438   35.6876  146.2303  20150104   7.0  4.0  C/2013 G9 (Tenagra)                                      MPC 90270
    CK13H010  2013 05 19.7088  2.646252  0.985858  136.5741   84.9616   27.0849  20150104  13.0  4.0  C/2013 H1 (La Sagra)                                     MPC 84933
    CK13H020  2014 01 22.9967  7.498580  1.000316   35.9842  262.7402  128.3926  20150104   6.5  4.0  C/2013 H2 (Boattini)                                     MPC 90270
    PK13J020  2013 08 22.9424  2.148504  0.655790   37.9007  289.3941   15.4954  20150104  13.0  4.0  P/2013 J2 (McNaught)                                     MPEC 2015-A04
    CK13J030  2013 02 22.6900  3.989226  0.997128  320.9512  200.7535  118.2103  20150104  10.0  4.0  C/2013 J3 (McNaught)                                     MPC 87916
    PK13J040  2013 11  4.2199  1.903367  0.230994  118.7706   84.0011    5.0352            14.0  4.0  P/2013 J4 (PANSTARRS)                                    MPC 87066
    CK13J050  2012 11 29.5032  4.904936  0.997469   19.1247  256.7554  136.0078  20150104  10.0  4.0  C/2013 J5 (Boattini)                                     MPC 84319
    CK13J060  2013 04  9.5379  2.414806  0.959583  125.6188   68.4114   85.0378  20150104  14.5  4.0  C/2013 J6 (Catalina)                                     MPC 84627
    CK13K010  2013 05 30.0477  0.948707  0.987832  171.3383  125.9025   42.3433  20150104  18.0  4.0  C/2013 K1 (Christensen)                                  MPC 84319
    CK13L020  2012 05 10.5589  4.869346  0.999819    1.8671  285.8730  106.7760  20150104   8.0  4.0  C/2013 L2 (Catalina)                                     MPC 87916
    PK13N030  2014 02 11.7024  3.028810  0.591768  323.9418   17.6743    2.1707  20150104  13.0  4.0  P/2013 N3 (PANSTARRS)                                    MPC 86229
    CK13N040  2013 08 21.4790  1.211208  0.974753  142.3120  322.5999   37.0344  20150104  12.0  4.0  C/2013 N4 (Borisov)                                      MPC 88328
    PK13N050  2013 07  2.5687  1.826544  0.732343  176.6211  187.4893   23.2695  20150104  17.0  4.0  P/2013 N5 (PANSTARRS)                                    MPC 85834
    PK13O020  2013 12 16.2071  2.144258  0.439508  213.7203  207.5936   13.3116  20150104  14.0  4.0  P/2013 O2 (PANSTARRS)                                    MPC 87479
    CK13O030  2013 09  9.8602  3.179352  0.995954  337.9355  276.7485  102.8361  20150104  11.5  4.0  C/2013 O3 (McNaught)                                     MPC 90767
    PK13P010  2013 02 25.7029  3.388689  0.604788  138.0266  160.8011   18.7065  20150104  12.0  4.0  P/2013 P1 (PANSTARRS)                                    MPC 85834
    CK13P020  2014 02 17.0643  2.835214  0.998667  104.9839    2.0307  125.5321  20150104  11.5  4.0  C/2013 P2 (PANSTARRS)                                    MPC 90767
    CK13P030  2014 11 23.7977  8.646548  1.001225  177.1819  177.2755   93.9111  20150104   5.5  4.0  C/2013 P3 (Palomar)                                      MPEC 2014-W05
    CK13P040  2014 08 12.2875  5.967033  0.595587  113.5597  256.6055    4.2648  20150104   7.5  4.0  C/2013 P4 (PANSTARRS)                                    MPEC 2014-Y44
    CK13P67E  2013 12  9.3387  1.848674  0.966908   59.5359  325.9558  116.7307  20150104  14.0  4.0  C/2013 PE67 (Catalina-Spacewatch)                        MPC 88696
    CK13R010  2013 12 22.7446  0.811872  0.998451   67.1724   70.7089   64.0288  20150104   7.0  4.0  C/2013 R1 (Lovejoy)                                      MPC 90767
    PK13R030  2013 08  5.8704  2.206274  0.273481    8.5021  342.6809    0.8988  20150104  14.0  4.0  P/2013 R3 (Catalina-PANSTARRS)                           MPC 86643
    PK13R03a  2013 08  5.9937  2.206435  0.273389    8.5871  342.6394    0.8979  20150104   9.0  4.0  P/2013 R3-A (Catalina-PANSTARRS)                         unp
    PK13R03b  2013 08  5.9896  2.206466  0.273375    8.5280  342.6982    0.8995  20150104   9.0  4.0  P/2013 R3-B (Catalina-PANSTARRS)                         unp
    CK13S010  2013 08  2.8869  2.824633  0.999947  166.0698  221.5425   83.9609  20150104  13.0  4.0  C/2013 S1 (Catalina)                                     MPC 86230
    PK13T010  2013 07 31.3867  2.212830  0.623266  345.9854   10.2299   24.2051  20150104  16.5  4.0  P/2013 T1 (PANSTARRS)                                    MPC 85835
    PK13T020  2013 06 21.3677  1.604801  0.528793  343.2084    2.2733    9.3769  20150104  16.0  4.0  P/2013 T2 (Schwartz)                                     MPC 86643
    CK13T05W  2014 08 18.1748  5.830777  0.984433  190.4258  319.7075   31.4104  20150104   7.5  4.0  C/2013 TW5 (Spacewatch)                                  MPEC 2014-Y44
    PK13TB7L  2014 02 18.2124  1.117897  0.689844  112.2139    3.3553    9.3653  20150104  17.5  4.0  P/2013 TL117 (Lemmon)                                    MPC 88696
    CK13U010  2013 11 18.7497  2.419582  0.797314  143.1740  211.2420   23.9415  20150104  13.5  4.0  C/2013 U1 (Catalina)                                     MPC 86643
    CK13U020  2014 10 25.9600  5.116774  0.994477  107.3907    6.9948   43.0959  20150104   7.5  4.0  C/2013 U2 (Holvorcem)                                    MPEC 2015-A04
    CK13U04Q  2014 07  5.9561  1.081032  0.982092   23.3138  317.6630  145.2588  20150104  13.5  4.0  C/2013 UQ4 (Catalina)                                    MPC 90768
    CK13U10S  2015 11 15.7003  0.822914  1.000389  340.3518  186.1386  148.8747  20150104   4.4  4.0  C/2013 US10 (Catalina)                                   MPEC 2015-A04
    CK13V010  2014 04 21.2290  1.660961  1.001318   48.0357   72.8103   65.3071  20150104  10.5  4.0  C/2013 V1 (Boattini)                                     MPEC 2014-Y44
    CK13V020  2014 10 14.3695  3.507933  1.004197   94.4787   48.4211   37.8494  20150104   7.0  4.0  C/2013 V2 (Borisov)                                      MPEC 2015-A10
    CK13V030  2013 10 29.8446  1.386749  0.890657  339.6305  100.9167   32.1342  20150104  14.0  4.0  C/2013 V3 (Nevski)                                       MPC 88329
    CK13V040  2015 10  7.4638  5.185543  1.002715   40.4347   55.6181   67.8486  20150104   6.0  4.0  C/2013 V4 (Catalina)                                     MPEC 2015-A04
    CK13V050  2014 09 28.2230  0.625484  0.998668  314.5746  278.6158  154.8844  20150104   9.0  4.0  C/2013 V5 (Oukaimeden)                                   MPEC 2015-A10
    PK13W010  2014 03  8.1567  1.415786  0.593747    1.3244  117.8546    4.6996  20150104  17.5  4.0  P/2013 W1 (PANSTARRS)                                    MPEC 2014-Y44
    CK13W020  2015 01  4.6713  4.451574  0.571246  306.9397  179.9285    4.5636  20150104  13.5  2.0  C/2013 W2 (PANSTARRS)                                    MPC 87480
    CK13X010  2016 04 20.7783  1.314429  1.000826  164.4590  130.9495  163.2303  20150104  10.5  2.0  C/2013 X1 (PANSTARRS)                                    MPEC 2015-A10
    CK13Y020  2014 06 13.6686  1.919107  0.991310  308.8535  243.3990   29.4134  20150104  12.0  4.0  C/2013 Y2 (PANSTARRS)                                    MPC 90768
    PK13Y46G  2017 01 26.1435  1.789812  0.456156  240.3624   50.3527    7.8359  20150104  10.0  4.0  P/2013 YG46 (Spacewatch)                                 MPC 87480
    PK14A020  2013 10 28.2492  2.074764  0.649417  356.2108  106.6706   24.5134  20150104  15.0  4.0  P/2014 A2 (Hill)                                         MPC 89728
    PK14A030  2013 04 15.5111  3.543453  0.240864  212.8177  230.5043   13.6740  20150104  12.0  4.0  P/2014 A3 (PANSTARRS)                                    MPC 89728
    CK14A040  2015 09  5.8761  4.180352  1.000487  356.7883   29.7296  121.3539  20150104   6.0  4.0  C/2014 A4 (SONEAR)                                       MPEC 2015-A10
    CK14A050  2014 08 12.4113  4.799965  0.951987  182.4510  310.1031   31.9998  20150104  10.0  4.0  C/2014 A5 (PANSTARRS)                                    MPC 89729
